[{"OBJECT_NAME":"STARLINK-3948","OBJECT_ID":"2022-051P","EPOCH":"2026-03-09T10:52:55.094880","MEAN_MOTION":15.08830607,"ECCENTRICITY":0.00013077,"INCLINATION":53.2161,"RA_OF_ASC_NODE":129.9475,"ARG_OF_PERICENTER":96.0274,"MEAN_ANOMALY":264.0867,"EPHEMERIS_TYPE":0,"CLASSIFICATION_TYPE":"U","NORAD_CAT_ID":52546,"ELEMENT_SET_NO":999,"REV_AT_EPOCH":21141,"BSTAR":-0.00012723095,"MEAN_MOTION_DOT":-2.312e-5,"MEAN_MOTION_DDOT":0},{"OBJECT_NAME":"ASTRO-H (HITOMI)","OBJECT_ID":"2016-012A","EPOCH":"2026-03-09T04:06:47.322720","MEAN_MOTION":15.10001629,"ECCENTRICITY":0.0009877,"INCLINATION":31.0008,"RA_OF_ASC_NODE":359.8923,"ARG_OF_PERICENTER":325.8962,"MEAN_ANOMALY":34.1041,"EPHEMERIS_TYPE":0,"CLASSIFICATION_TYPE":"U","NORAD_CAT_ID":41337,"ELEMENT_SET_NO":999,"REV_AT_EPOCH":55215,"BSTAR":0.00025536822,"MEAN_MOTION_DOT":4.351e-5,"MEAN_MOTION_DDOT":0}]
